CTC2_L_00247016-03
1 72559U 25537VS  26037.47792824  .00000000  00000+0  00000-0 0  9990
2 72559 100.0000 180.0000 0000000   0.0000   0.0000 14.15679836    11
CTC2_L_00247016-04
1 72560U 26394QU  26037.47792824  .00000000  00000+0  00000-0 0  9994
2 72560 100.0000 180.0000 0000000   0.0000  90.0000 14.15679836    12
CTC2_L_00247017-01
1 72561U 22266BW  26037.47792824  .00000000  00000+0  00000-0 0  9999
2 72561 100.0000 192.0000 0000000   0.0000 192.0000 14.15679836    19
CTC2_L_00247017-02
1 72562U 25530AN  26037.47792824  .00000000  00000+0  00000-0 0  9997
2 72562 100.0000 192.0000 0000000   0.0000 282.0000 14.15679836    10
CTC2_L_00247017-03
1 72563U 24327UQ  26037.47792824  .00000000  00000+0  00000-0 0  9991
2 72563 100.0000 192.0000 0000000   0.0000  12.0000 14.15679836    12
CTC2_L_00247017-04
1 72564U 26281W   26037.47792824  .00000000  00000+0  00000-0 0  9993
2 72564 100.0000 192.0000 0000000   0.0000 102.0000 14.15679836    13
CTC2_L_00247018-01
1 72565U 22990NJ  26037.47792824  .00000000  00000+0  00000-0 0  9997
2 72565 100.0000 204.0000 0000000   0.0000 204.0000 14.15679836    11
CTC2_L_00247018-02
1 72566U 25649GM  26037.47792824  .00000000  00000+0  00000-0 0  9992
2 72566 100.0000 204.0000 0000000   0.0000 294.0000 14.15679836    11
CTC2_L_00247018-03
1 72567U 24601HO  26037.47792824  .00000000  00000+0  00000-0 0  9990
2 72567 100.0000 204.0000 0000000   0.0000  24.0000 14.15679836    13
CTC2_L_00247018-04
1 72568U 24553AR  26037.47792824  .00000000  00000+0  00000-0 0  9997
2 72568 100.0000 204.0000 0000000   0.0000 114.0000 14.15679836    14
CTC2_L_00247019-01
1 72569U 22553SC  26037.47792824  .00000000  00000+0  00000-0 0  9996
2 72569 100.0000 216.0000 0000000   0.0000 216.0000 14.15679836    11
CTC2_L_00247019-02
1 72570U 22842HR  26037.47792824  .00000000  00000+0  00000-0 0  9999
2 72570 100.0000 216.0000 0000000   0.0000 306.0000 14.15679836    13
CTC2_L_00247019-03
1 72571U 22981XU  26037.47792824  .00000000  00000+0  00000-0 0  9994
2 72571 100.0000 216.0000 0000000   0.0000  36.0000 14.15679836    14
CTC2_L_00247019-04
1 72572U 24692HM  26037.47792824  .00000000  00000+0  00000-0 0  9996
2 72572 100.0000 216.0000 0000000   0.0000 126.0000 14.15679836    15
CTC2_L_00247020-01
1 72573U 24104IJ  26037.47792824  .00000000  00000+0  00000-0 0  9995
2 72573 100.0000 228.0000 0000000   0.0000 228.0000 14.15679836    12
CTC2_L_00247020-02
1 72574U 26454RT  26037.47792824  .00000000  00000+0  00000-0 0  9996
2 72574 100.0000 228.0000 0000000   0.0000 318.0000 14.15679836    13
CTC2_L_00247020-03
1 72575U 22325U   26037.47792824  .00000000  00000+0  00000-0 0  9990
2 72575 100.0000 228.0000 0000000   0.0000  48.0000 14.15679836    14
CTC2_L_00247020-04
1 72576U 26233ZH  26037.47792824  .00000000  00000+0  00000-0 0  9993
2 72576 100.0000 228.0000 0000000   0.0000 138.0000 14.15679836    15
CTC2_L_00247021-01
1 72577U 25171TP  26037.47792824  .00000000  00000+0  00000-0 0  9994
2 72577 100.0000 240.0000 0000000   0.0000 240.0000 14.15679836    14
CTC2_L_00247021-02
1 72578U 26724ZR  26037.47792824  .00000000  00000+0  00000-0 0  9990
2 72578 100.0000 240.0000 0000000   0.0000 330.0000 14.15679836    15
CTC2_L_00247021-03
1 72579U 26445ND  26037.47792824  .00000000  00000+0  00000-0 0  9991
2 72579 100.0000 240.0000 0000000   0.0000  60.0000 14.15679836    16
CTC2_L_00247021-04
1 72580U 23371OR  26037.47792824  .00000000  00000+0  00000-0 0  9998
2 72580 100.0000 240.0000 0000000   0.0000 150.0000 14.15679836    18
CTC2_L_00247022-01
1 72581U 22052SR  26037.47792824  .00000000  00000+0  00000-0 0  9994
2 72581 100.0000 252.0000 0000000   0.0000 252.0000 14.15679836    15
CTC2_L_00247022-02
1 72582U 25994HH  26037.47792824  .00000000  00000+0  00000-0 0  9993
2 72582 100.0000 252.0000 0000000   0.0000 342.0000 14.15679836    16
CTC2_L_00247022-03
1 72583U 26213UV  26037.47792824  .00000000  00000+0  00000-0 0  9999
2 72583 100.0000 252.0000 0000000   0.0000  72.0000 14.15679836    17
CTC2_L_00247022-04
1 72584U 23487Y   26037.47792824  .00000000  00000+0  00000-0 0  9990
2 72584 100.0000 252.0000 0000000   0.0000 162.0000 14.15679836    18
CTC2_L_00247023-01
1 72585U 23692RR  26037.47792824  .00000000  00000+0  00000-0 0  9999
2 72585 100.0000 264.0000 0000000   0.0000 264.0000 14.15679836    15
CTC2_L_00247023-02
1 72586U 26947GG  26037.47792824  .00000000  00000+0  00000-0 0  9996
2 72586 100.0000 264.0000 0000000   0.0000 354.0000 14.15679836    16
CTC2_L_00247023-03
1 72587U 26659VS  26037.47792824  .00000000  00000+0  00000-0 0  9997
2 72587 100.0000 264.0000 0000000   0.0000  84.0000 14.15679836    17
CTC2_L_00247023-04
1 72588U 26045WJ  26037.47792824  .00000000  00000+0  00000-0 0  9997
2 72588 100.0000 264.0000 0000000   0.0000 174.0000 14.15679836    18
CTC2_L_00247024-01
1 72589U 25750RE  26037.47792824  .00000000  00000+0  00000-0 0  9990
2 72589 100.0000 276.0000 0000000   0.0000 276.0000 14.15679836    15
CTC2_L_00247024-02
1 72590U 24829NK  26037.47792824  .00000000  00000+0  00000-0 0  9998
2 72590 100.0000 276.0000 0000000   0.0000   6.0000 14.15679836    18
CTC2_L_00247024-03
1 72591U 23961ZW  26037.47792824  .00000000  00000+0  00000-0 0  9995
2 72591 100.0000 276.0000 0000000   0.0000  96.0000 14.15679836    18
CTC2_L_00247024-04
1 72592U 24353TL  26037.47792824  .00000000  00000+0  00000-0 0  9992
2 72592 100.0000 276.0000 0000000   0.0000 186.0000 14.15679836    19
CTC2_L_00247025-01
1 72593U 25486FZ  26037.47792824  .00000000  00000+0  00000-0 0  9991
2 72593 100.0000 288.0000 0000000   0.0000 288.0000 14.15679836    16
CTC2_L_00247025-02
1 72594U 24780CH  26037.47792824  .00000000  00000+0  00000-0 0  9998
2 72594 100.0000 288.0000 0000000   0.0000  18.0000 14.15679836    18
CTC2_L_00247025-03
1 72595U 25578YG  26037.47792824  .00000000  00000+0  00000-0 0  9995
2 72595 100.0000 288.0000 0000000   0.0000 108.0000 14.15679836    19
CTC2_L_00247025-04
1 72596U 23226TH  26037.47792824  .00000000  00000+0  00000-0 0  9994
2 72596 100.0000 288.0000 0000000   0.0000 198.0000 14.15679836    19
CTC2_L_00247026-01
1 72597U 24179XO  26037.47792824  .00000000  00000+0  00000-0 0  9993
2 72597 100.0000 300.0000 0000000   0.0000 300.0000 14.15679836    10
CTC2_L_00247026-02
1 72598U 22565KV  26037.47792824  .00000000  00000+0  00000-0 0  9991
2 72598 100.0000 300.0000 0000000   0.0000  30.0000 14.15679836    11
CTC2_L_00247026-03
1 72599U 22660RR  26037.47792824  .00000000  00000+0  00000-0 0  9998
2 72599 100.0000 300.0000 0000000   0.0000 120.0000 14.15679836    12
CTC2_L_00247026-04
1 72600U 25028BH  26037.47792824  .00000000  00000+0  00000-0 0  9992
2 72600 100.0000 300.0000 0000000   0.0000 210.0000 14.15679836    15
CTC2_L_00247027-01
1 72601U 25757HX  26037.47792824  .00000000  00000+0  00000-0 0  9992
2 72601 100.0000 312.0000 0000000   0.0000 312.0000 14.15679836    12
CTC2_L_00247027-02
1 72602U 25613XJ  26037.47792824  .00000000  00000+0  00000-0 0  9994
2 72602 100.0000 312.0000 0000000   0.0000  42.0000 14.15679836    13
CTC2_L_00247027-03
1 72603U 24276JF  26037.47792824  .00000000  00000+0  00000-0 0  9999
2 72603 100.0000 312.0000 0000000   0.0000 132.0000 14.15679836    14
CTC2_L_00247027-04
1 72604U 25585SP  26037.47792824  .00000000  00000+0  00000-0 0  9994
2 72604 100.0000 312.0000 0000000   0.0000 222.0000 14.15679836    15
CTC2_L_00247028-01
1 72605U 25988IJ  26037.47792824  .00000000  00000+0  00000-0 0  9992
2 72605 100.0000 324.0000 0000000   0.0000 324.0000 14.15679836    12
CTC2_L_00247028-02
1 72606U 26645UR  26037.47792824  .00000000  00000+0  00000-0 0  9994
2 72606 100.0000 324.0000 0000000   0.0000  54.0000 14.15679836    13
CTC2_L_00247028-03
1 72607U 25348UN  26037.47792824  .00000000  00000+0  00000-0 0  9994
2 72607 100.0000 324.0000 0000000   0.0000 144.0000 14.15679836    14
CTC2_L_00247028-04
1 72608U 23618KN  26037.47792824  .00000000  00000+0  00000-0 0  9993
2 72608 100.0000 324.0000 0000000   0.0000 234.0000 14.15679836    15
CTC2_L_00247029-01
1 72609U 26790IR  26037.47792824  .00000000  00000+0  00000-0 0  9998
2 72609 100.0000 336.0000 0000000   0.0000 336.0000 14.15679836    12
CTC2_L_00247029-02
1 72610U 26637RA  26037.47792824  .00000000  00000+0  00000-0 0  9990
2 72610 100.0000 336.0000 0000000   0.0000  66.0000 14.15679836    14
CTC2_L_00247029-03
1 72611U 22831WY  26037.47792824  .00000000  00000+0  00000-0 0  9993
2 72611 100.0000 336.0000 0000000   0.0000 156.0000 14.15679836    15
CTC2_L_00247029-04
1 72612U 23279NO  26037.47792824  .00000000  00000+0  00000-0 0  9991
2 72612 100.0000 336.0000 0000000   0.0000 246.0000 14.15679836    16
CTC2_L_00247030-01
1 72613U 23883U   26037.47792824  .00000000  00000+0  00000-0 0  9993
2 72613 100.0000 348.0000 0000000   0.0000 348.0000 14.15679836    13
CTC2_L_00247030-02
1 72614U 25212IB  26037.47792824  .00000000  00000+0  00000-0 0  9992
2 72614 100.0000 348.0000 0000000   0.0000  78.0000 14.15679836    14
CTC2_L_00247030-03
1 72615U 26815SP  26037.47792824  .00000000  00000+0  00000-0 0  9993
2 72615 100.0000 348.0000 0000000   0.0000 168.0000 14.15679836    15
CTC2_L_00247030-04
1 72616U 23740UK  26037.47792824  .00000000  00000+0  00000-0 0  9998
2 72616 100.0000 348.0000 0000000   0.0000 258.0000 14.15679836    16
